STARLINK-32837          
1 62812U 25018G   26197.65087020  .00015207  00000+0  46033-3 0  9991
2 62812  53.1609  69.8456 0001496  69.5165 290.5998 15.34397212 82936
STARLINK-32855          
1 62813U 25018H   26197.07930274  .00038195  00000+0  11363-2 0  9994
2 62813  53.1587  71.9493 0001714  94.8606 265.2592 15.34386459 82841
STARLINK-32843          
1 62814U 25018J   26197.06574548  .00007521  00000+0  25381-3 0  9997
2 62814  53.1585  72.5751 0001209  85.8899 274.2241 15.31707486 82831
STARLINK-32845          
1 62815U 25018K   26196.96207426  .00030124  00000+0  95317-3 0  9995
2 62815  53.1584  73.3495 0001894 200.8837 159.2088 15.32543203 82811
STARLINK-32854          
1 62816U 25018L   26197.06673874  .00029647  00000+0  88454-3 0  9994
2 62816  53.1600  72.5820 0001458  85.1633 274.9536 15.34420582 82828
STARLINK-32824          
1 62817U 25018M   26197.63701823  .00011119  00000+0  38708-3 0  9996
2 62817  53.1598  70.4466 0001288  86.9675 273.1474 15.30191674 83864
STARLINK-32853          
1 62818U 25018N   26197.67181772  .00013804  00000+0  41896-3 0  9991
2 62818  53.1579  69.2497 0001195  91.1603 268.9537 15.34397676 82944
STARLINK-32856          
1 62819U 25018P   26197.02887581  .00007813  00000+0  24215-3 0  9991
2 62819  53.1587  72.3473 0001429  99.7770 260.3394 15.34396815 82842
STARLINK-32844          
1 62820U 25018Q   26197.64366458  .00011475  00000+0  38091-3 0  9992
2 62820  53.1588  69.7757 0001609 116.6683 243.4483 15.31704395 82925
STARLINK-32782          
1 62821U 25018R   26197.37559603  .00009749  00000+0  29937-3 0  9999
2 62821  53.1603  70.9547 0001292  84.9220 275.1930 15.34392896 82894
STARLINK-32842          
1 62822U 25018S   26197.07296890  .00013907  00000+0  42192-3 0  9992
2 62822  53.1585  71.9099 0001156  86.6079 273.5056 15.34402399 82854
STARLINK-32852          
1 62824U 25018U   26197.46745391  .00005031  00000+0  18188-3 0  9999
2 62824  53.1573  71.5205 0001282 110.5609 249.5529 15.30200263 82898
STARLINK-32825          
1 62825U 25018V   26197.35201521  .00004415  00000+0  16113-3 0  9991
2 62825  53.1588  69.3785 0001822  92.9108 267.2101 15.30195540 82906
STARLINK-32704          
1 62826U 25018W   26196.87293189  .00044885  00000+0  93346-3 0  9997
2 62826  53.1517  69.2277 0004922 119.2360 240.9140 15.45210948 82863
STARLINK-32727          
1 62828U 25018Y   26197.05145250  .00011468  00000+0  35003-3 0  9992
2 62828  53.1583  68.2289 0001141 100.0915 260.0216 15.34399402 83841
STARLINK-11548 [DTC]    
1 62829U 25019A   26197.44332882  .00034263  00000+0  26932-3 0  9995
2 62829  42.9996 249.6061 0000649 232.0961 127.9847 15.70848266 84139
STARLINK-11480 [DTC]    
1 62830U 25019B   26197.59174623  .00104417  00000+0  80683-3 0  9992
2 62830  42.9983 249.0104 0001267 257.0003 103.0724 15.70846787 84157
STARLINK-11559 [DTC]    
1 62831U 25019C   26197.62360197  .00106295  00000+0  82164-3 0  9992
2 62831  42.9989 249.2666 0001324 260.9996  99.0721 15.70830671 84153
STARLINK-11549 [DTC]    
1 62832U 25019D   26197.16258490  .00088236  00000+0  68283-3 0  9994
2 62832  42.9992 251.8216 0001495 280.3192  79.7507 15.70875803 84086
STARLINK-11554 [DTC]    
1 62833U 25019E   26197.48582059  .00099781  00000+0  77224-3 0  9993
2 62833  42.9987 249.9470 0001085 325.3749  34.7048 15.70827070 84134
STARLINK-11520 [DTC]    
1 62834U 25019F   26197.57581339  .00109259  00000+0  84332-3 0  9994
2 62834  42.9998 248.8807 0002012 264.3404  95.7234 15.70853674 84166
STARLINK-11546 [DTC]    
1 62835U 25019G   26197.62891432  .00100684  00000+0  77756-3 0  9994
2 62835  42.9987 249.3075 0001403 346.4154  13.6675 15.70874271 84158
STARLINK-11533 [DTC]    
1 62836U 25019H   26197.53346828  .00101473  00000+0  78525-3 0  9991
2 62836  42.9993 249.4339 0002059 252.0902 107.9741 15.70821449 84140
STARLINK-11557 [DTC]    
1 62837U 25019J   26197.58112757  .00142707  00000+0  10958-2 0  9999
2 62837  42.9991 248.9206 0001209 296.6929  63.3815 15.70858577 84155
STARLINK-11556 [DTC]    
1 62838U 25019K   26197.57672797  .00061913  00000+0  48246-3 0  9995
2 62838  42.9999 248.8861 0001621 273.4359  86.6323 15.70837098 84155
STARLINK-11524 [DTC]    
1 62839U 25019L   26197.49112319  .00111654  00000+0  86098-3 0  9991
2 62839  43.0003 249.9872 0002189 259.1876 100.8745 15.70867249 84139
STARLINK-11551 [DTC]    
1 62840U 25019M   26197.58643563  .00101727  00000+0  78635-3 0  9991
2 62840  42.9996 248.9608 0001156 259.7522 100.3216 15.70848006 84153
STARLINK-11531 [DTC]    
1 62841U 25019N   26196.26712098  .00096100  00000+0  74317-3 0  9997
2 62841  43.0000 257.1378 0001323 250.4828 109.5897 15.70860131 83946
STARLINK-32755          
1 62842U 25019P   26197.05177375  .00011168  00000+0  41465-3 0  9998
2 62842  43.0080  77.0196 0001928 289.7242  70.3402 15.27589161 81968
STARLINK-32797          
1 62843U 25019Q   26197.38288301  .00008072  00000+0  30252-3 0  9999
2 62843  42.9993  82.1282 0000285 358.3895   1.6956 15.27579477 81932
