OBJECT_NAME,OBJECT_ID,EPOCH,MEAN_MOTION,ECCENTRICITY,INCLINATION,RA_OF_ASC_NODE,ARG_OF_PERICENTER,MEAN_ANOMALY,EPHEMERIS_TYPE,CLASSIFICATION_TYPE,NORAD_CAT_ID,ELEMENT_SET_NO,REV_AT_EPOCH,BSTAR,MEAN_MOTION_DOT,MEAN_MOTION_DDOT
STARLINK-32837,2025-018G,2026-07-16T15:37:15.185280,15.34397212,.0001496,53.1609,69.8456,69.5165,290.5998,0,U,62812,999,8293,.46033E-3,.15207E-3,0
STARLINK-32855,2025-018H,2026-07-16T01:54:11.756736,15.34386459,.00017145,53.1587,71.9493,94.8606,265.2592,0,U,62813,999,8284,.11363131E-2,.38195E-3,0
STARLINK-32843,2025-018J,2026-07-16T01:34:40.409472,15.31707486,.0001209,53.1585,72.5751,85.8899,274.2241,0,U,62814,999,8283,.25380573E-3,.7521E-4,0
STARLINK-32845,2025-018K,2026-07-15T23:05:23.216064,15.32543203,.00018943,53.1584,73.3495,200.8837,159.2088,0,U,62815,999,8281,.95316724E-3,.30124E-3,0
STARLINK-32854,2025-018L,2026-07-16T01:36:06.227136,15.34420582,.00014583,53.1600,72.5820,85.1633,274.9536,0,U,62816,999,8282,.88454145E-3,.29647E-3,0
STARLINK-32824,2025-018M,2026-07-16T15:17:18.375072,15.30191674,.0001288,53.1598,70.4466,86.9675,273.1474,0,U,62817,999,8386,.38708E-3,.11119E-3,0
STARLINK-32853,2025-018N,2026-07-16T16:07:25.051008,15.34397676,.0001195,53.1579,69.2497,91.1603,268.9537,0,U,62818,999,8294,.41896E-3,.13804E-3,0
STARLINK-32856,2025-018P,2026-07-16T00:41:34.869984,15.34396815,.00014292,53.1587,72.3473,99.7770,260.3394,0,U,62819,999,8284,.24214804E-3,.7813E-4,0
STARLINK-32844,2025-018Q,2026-07-16T15:26:52.619712,15.31704395,.0001609,53.1588,69.7757,116.6683,243.4483,0,U,62820,999,8292,.38091E-3,.11475E-3,0
STARLINK-32782,2025-018R,2026-07-16T09:00:51.496992,15.34392896,.0001292,53.1603,70.9547,84.9220,275.1930,0,U,62821,999,8289,.29937E-3,.9749E-4,0
STARLINK-32842,2025-018S,2026-07-16T01:45:04.512960,15.34402399,.00011563,53.1585,71.9099,86.6079,273.5056,0,U,62822,999,8285,.42192292E-3,.13907E-3,0
STARLINK-32852,2025-018U,2026-07-16T11:13:08.017824,15.30200263,.0001282,53.1573,71.5205,110.5609,249.5529,0,U,62824,999,8289,.18188E-3,.5031E-4,0
STARLINK-32825,2025-018V,2026-07-16T08:26:54.114144,15.30195540,.0001822,53.1588,69.3785,92.9108,267.2101,0,U,62825,999,8290,.16113E-3,.4415E-4,0
STARLINK-32704,2025-018W,2026-07-15T20:57:01.315296,15.45210948,.0004922,53.1517,69.2277,119.2360,240.9140,0,U,62826,999,8286,.93346E-3,.44885E-3,0
STARLINK-32727,2025-018Y,2026-07-16T01:14:05.496000,15.34399402,.00011415,53.1583,68.2289,100.0915,260.0216,0,U,62828,999,8384,.35003108E-3,.11468E-3,0
STARLINK-11548 [DTC],2025-019A,2026-07-16T10:38:23.610048,15.70848266,.0000649,42.9996,249.6061,232.0961,127.9847,0,U,62829,999,8413,.26932E-3,.34263E-3,0
STARLINK-11480 [DTC],2025-019B,2026-07-16T14:12:06.874272,15.70846787,.0001267,42.9983,249.0104,257.0003,103.0724,0,U,62830,999,8415,.80683E-3,.104417E-2,0
STARLINK-11559 [DTC],2025-019C,2026-07-16T14:57:59.210208,15.70830671,.0001324,42.9989,249.2666,260.9996,99.0721,0,U,62831,999,8415,.82164E-3,.106295E-2,0
STARLINK-11549 [DTC],2025-019D,2026-07-16T03:54:07.335360,15.70875803,.00014959,42.9992,251.8216,280.3192,79.7507,0,U,62832,999,8408,.68282877E-3,.88236E-3,0
STARLINK-11554 [DTC],2025-019E,2026-07-16T11:39:34.898976,15.70827070,.0001085,42.9987,249.9470,325.3749,34.7048,0,U,62833,999,8413,.77224E-3,.99781E-3,0
STARLINK-11520 [DTC],2025-019F,2026-07-16T13:49:10.276896,15.70853674,.0002012,42.9998,248.8807,264.3404,95.7234,0,U,62834,999,8416,.84332E-3,.109259E-2,0
STARLINK-11546 [DTC],2025-019G,2026-07-16T15:05:38.197248,15.70874271,.0001403,42.9987,249.3075,346.4154,13.6675,0,U,62835,999,8415,.77756E-3,.100684E-2,0
STARLINK-11533 [DTC],2025-019H,2026-07-16T12:48:11.659392,15.70821449,.0002059,42.9993,249.4339,252.0902,107.9741,0,U,62836,999,8414,.78525E-3,.101473E-2,0
STARLINK-11557 [DTC],2025-019J,2026-07-16T13:56:49.422048,15.70858577,.0001209,42.9991,248.9206,296.6929,63.3815,0,U,62837,999,8415,.10958E-2,.142707E-2,0
STARLINK-11556 [DTC],2025-019K,2026-07-16T13:50:29.296608,15.70837098,.0001621,42.9999,248.8861,273.4359,86.6323,0,U,62838,999,8415,.48246E-3,.61913E-3,0
STARLINK-11524 [DTC],2025-019L,2026-07-16T11:47:13.043616,15.70867249,.0002189,43.0003,249.9872,259.1876,100.8745,0,U,62839,999,8413,.86098E-3,.111654E-2,0
STARLINK-11551 [DTC],2025-019M,2026-07-16T14:04:28.038432,15.70848006,.0001156,42.9996,248.9608,259.7522,100.3216,0,U,62840,999,8415,.78635E-3,.101727E-2,0
STARLINK-11531 [DTC],2025-019N,2026-07-15T06:24:39.252672,15.70860131,.0001323,43.0000,257.1378,250.4828,109.5897,0,U,62841,999,8394,.7431651E-3,.961E-3,0
STARLINK-32755,2025-019P,2026-07-16T01:14:33.252000,15.27589161,.00019283,43.0080,77.0196,289.7242,70.3402,0,U,62842,999,8196,.41464809E-3,.11168E-3,0
STARLINK-32797,2025-019Q,2026-07-16T09:11:21.092064,15.27579477,.0000285,42.9993,82.1282,358.3895,1.6956,0,U,62843,999,8193,.30252E-3,.8072E-4,0
